TIANWANG 1B (TW-1B)     
1 40927U 15051C   17345.82169538  .00006515  00000-0  14026-3 0  9999
2 40927  97.2171  24.1001 0008652 252.4996 194.8447 15.44923785124267
